{
    "links": {
        "self": "http://www.neowsapp.com/rest/v1/neo/3541752?api_key=iIulBulltgU6a56xZRHN4H3l9WmuAYTsLGpBGhQ2"
    },
    "id": "3541752",
    "neo_reference_id": "3541752",
    "name": "(2010 PO2)",
    "designation": "2010 PO2",
    "nasa_jpl_url": "http://ssd.jpl.nasa.gov/sbdb.cgi?sstr=3541752",
    "absolute_magnitude_h": 23.2,
    "estimated_diameter": {
        "kilometers": {
            "estimated_diameter_min": 0.0608912622,
            "estimated_diameter_max": 0.1361570015
        },
        "meters": {
            "estimated_diameter_min": 60.8912622106,
            "estimated_diameter_max": 136.1570015386
        },
        "miles": {
            "estimated_diameter_min": 0.0378360645,
            "estimated_diameter_max": 0.0846040122
        },
        "feet": {
            "estimated_diameter_min": 199.7744887109,
            "estimated_diameter_max": 446.7093369279
        }
    },
    "is_potentially_hazardous_asteroid": false,
    "close_approach_data": [
        {
            "close_approach_date": "1993-09-06",
            "close_approach_date_full": "1993-Sep-06 05:15",
            "epoch_date_close_approach": 747292500000,
            "relative_velocity": {
                "kilometers_per_second": "10.9970040282",
                "kilometers_per_hour": "39589.2145014559",
                "miles_per_hour": "24599.1983106408"
            },
            "miss_distance": {
                "astronomical": "0.3513451529",
                "lunar": "136.6732644781",
                "kilometers": "52560486.508664323",
                "miles": "32659571.8720127374"
            },
            "orbiting_body": "Earth"
        },
        {
            "close_approach_date": "2004-05-29",
            "close_approach_date_full": "2004-May-29 20:00",
            "epoch_date_close_approach": 1085860800000,
            "relative_velocity": {
                "kilometers_per_second": "7.6971868177",
                "kilometers_per_hour": "27709.8725435536",
                "miles_per_hour": "17217.8371924097"
            },
            "miss_distance": {
                "astronomical": "0.0536818775",
                "lunar": "20.8822503475",
                "kilometers": "8030694.531600925",
                "miles": "4990042.190605765"
            },
            "orbiting_body": "Mars"
        },
        {
            "close_approach_date": "2010-08-07",
            "close_approach_date_full": "2010-Aug-07 14:48",
            "epoch_date_close_approach": 1281192480000,
            "relative_velocity": {
                "kilometers_per_second": "10.0424575188",
                "kilometers_per_hour": "36152.847067572",
                "miles_per_hour": "22463.9732237366"
            },
            "miss_distance": {
                "astronomical": "0.062231645",
                "lunar": "24.208109905",
                "kilometers": "9309721.53859615",
                "miles": "5784792.71968087"
            },
            "orbiting_body": "Earth"
        },
        {
            "close_approach_date": "2021-05-07",
            "close_approach_date_full": "2021-May-07 18:34",
            "epoch_date_close_approach": 1620412440000,
            "relative_velocity": {
                "kilometers_per_second": "8.569446053",
                "kilometers_per_hour": "30850.0057907594",
                "miles_per_hour": "19168.9938759305"
            },
            "miss_distance": {
                "astronomical": "0.0776485022",
                "lunar": "30.2052673558",
                "kilometers": "11616050.537810314",
                "miles": "7217879.1066937732"
            },
            "orbiting_body": "Mars"
        },
        {
            "close_approach_date": "2027-07-23",
            "close_approach_date_full": "2027-Jul-23 12:13",
            "epoch_date_close_approach": 1816344780000,
            "relative_velocity": {
                "kilometers_per_second": "16.015424295",
                "kilometers_per_hour": "57655.5274621606",
                "miles_per_hour": "35824.9026055853"
            },
            "miss_distance": {
                "astronomical": "0.2982579375",
                "lunar": "116.0223376875",
                "kilometers": "44618752.160593125",
                "miles": "27724806.976210125"
            },
            "orbiting_body": "Earth"
        }
    ],
    "orbital_data": {
        "orbit_id": "16",
        "orbit_determination_date": "2017-04-06 08:57:02",
        "first_observation_date": "2010-08-02",
        "last_observation_date": "2010-09-05",
        "data_arc_in_days": 34,
        "observations_used": 80,
        "orbit_uncertainty": "7",
        "minimum_orbit_intersection": ".0602098",
        "jupiter_tisserand_invariant": "4.619",
        "epoch_osculation": "2459000.5",
        "eccentricity": ".2898223474424772",
        "semi_major_axis": "1.421629885788199",
        "inclination": "16.63322209929245",
        "ascending_node_longitude": "308.7357803666878",
        "orbital_period": "619.1248616575082",
        "perihelion_distance": "1.009609775094682",
        "perihelion_argument": "45.91251244492187",
        "aphelion_distance": "1.833649996481716",
        "perihelion_time": "2459168.931371378216",
        "mean_anomaly": "262.0628996648171",
        "mean_motion": ".5814659082438001",
        "equinox": "J2000",
        "orbit_class": {
            "orbit_class_type": "APO",
            "orbit_class_description": "Near-Earth asteroid orbits which cross the Earth’s orbit similar to that of 1862 Apollo",
            "orbit_class_range": "a (semi-major axis) > 1.0 AU; q (perihelion) < 1.017 AU"
        }
    },
    "is_sentry_object": false
}